STARLINK-37975          
1 69707U 26147D   26194.07795077  .00181179  00000+0  92423-3 0  9992
2 69707  97.2842 230.3474 0000665  37.6587 322.4727 15.80884305  3528
STARLINK-37972          
1 69708U 26147E   26194.07720071  .00356013  00000+0  17708-2 0  9998
2 69708  97.2827 230.3483 0001416 131.9783 228.1606 15.80985607  3528
STARLINK-37963          
1 69709U 26147F   26194.07644678  .00214593  00000+0  10895-2 0  9993
2 69709  97.2834 230.3484 0000386  76.4176 283.7135 15.80899599  3520
STARLINK-37969          
1 69710U 26147G   26194.07569580  .00189256  00000+0  96405-3 0  9992
2 69710  97.2833 230.3502 0001375 120.6066 239.5338 15.80894466  3523
STARLINK-37956          
1 69711U 26147H   26194.07494500  .00165002  00000+0  84334-3 0  9993
2 69711  97.2836 230.3520 0001189 106.0928 254.0471 15.80884386  3525
STARLINK-38043          
1 69712U 26147J   26194.07419490  .00375187  00000+0  18611-2 0  9990
2 69712  97.2837 230.3525 0001532 124.4004 235.7409 15.80996319  3520
STARLINK-38020          
1 69713U 26147K   26194.07344206  .00183409  00000+0  93430-3 0  9990
2 69713  97.2834 230.3535 0001844 120.1791 239.9660 15.80908550  3526
STARLINK-38059          
1 69714U 26147L   26194.07269024  .00236164  00000+0  11954-2 0  9992
2 69714  97.2835 230.3547 0001261  96.6243 263.5169 15.80911690  3529
STARLINK-38061          
1 69715U 26147M   26193.56553900  .00200648  00000+0  10183-2 0  9996
2 69715  97.2850 229.8216 0000910  70.5343 289.6024 15.80946327  3440
STARLINK-38060          
1 69716U 26147N   26194.07118872  .00203365  00000+0  10349-2 0  9992
2 69716  97.2840 230.3572 0000713  66.2004 293.9339 15.80878954  3525
STARLINK-38040          
1 69717U 26147P   26193.56403243  .00339677  00000+0  16918-2 0  9999
2 69717  97.2846 229.8231 0000557  18.4300 341.6989 15.80996736  3443
STARLINK-37989          
1 69718U 26147Q   26193.33335648 -.00098494  00000+0 -51827-3 0  9998
2 69718  97.2834 229.5802 0001325  94.5508  37.9655 15.80858469  3378
STARLINK-38039          
1 69719U 26147R   26192.04330138  .00408940  00000+0  19472-2 0  9993
2 69719  97.2728 228.2093 0004840 174.3599 185.7725 15.81797917  3204
STARLINK-38003          
1 69720U 26147S   26194.19478904  .00316415  00000+0  15880-2 0  9991
2 69720  97.2826 230.4944 0001604 356.6157   3.5100 15.80890682  3548
STARLINK-38014          
1 69721U 26147T   26194.19403663  .00178697  00000+0  90946-3 0  9997
2 69721  97.2832 230.4957 0001891 100.3218 259.8263 15.80940776  3546
STARLINK-37915          
1 69722U 26147U   26194.00337906  .00226889  00000+0  11491-2 0  9998
2 69722  97.2823 230.2959 0001182 108.9793 251.1604 15.80923484  3510
STARLINK-38007          
1 69723U 26147V   26194.13241570 -.02683838  00000+0 -17424-1 0  9990
2 69723  97.2828 230.4278 0010022 113.0026 247.2300 15.79494951  3532
STARLINK-38008          
1 69724U 26147W   26194.06517632  .00410418  00000+0  20246-2 0  9993
2 69724  97.2825 230.3649 0001850 136.2992 223.8424 15.81027502  3522
STARLINK-38021          
1 69725U 26147X   26194.06442397  .00212513  00000+0  10801-2 0  9991
2 69725  97.2838 230.3662 0000872 105.6071 254.5293 15.80881820  3528
STARLINK-38015          
1 69726U 26147Y   26194.06367468  .00405310  00000+0  20017-2 0  9996
2 69726  97.2826 230.3666 0001538 146.1115 214.0252 15.81014941  3528
STARLINK-38010          
1 69727U 26147Z   26194.26943622  .00058671  00000+0  39144-3 0  9997
2 69727  97.2843 230.5457 0001112  99.7863 260.3528 15.75195133  3558
SXM-11                  
1 69728U 26148A   26193.61042086 -.00000004  00000+0  00000+0 0  9994
2 69728   0.1203 265.0138 0006024 283.4113 201.3552  1.00371494   297
HAIYANG-2E              
1 69737U 26149A   26193.98290525 -.00000093  00000+0 -47775-4 0  9992
2 69737  99.3453 200.9373 0001575  94.2447 265.8885 13.79314780  1522
CZ-4B R/B               
1 69738U 26149B   26193.95262498  .00000056  00000+0  35493-4 0  9999
2 69738  99.3217 201.8111 0198227 336.5469  22.6763 14.30067072  1811
STARLINK-38033          
1 69739U 26150A   26194.00002315 -.00060085  00000+0 -31468-3 0  9996
2 69739  97.2836  32.2347 0001258  98.9592 286.2183 15.80844954  2943
STARLINK-38076          
1 69740U 26150B   26194.25003472 -.00085573  00000+0 -57868-3 0  9991
2 69740  97.2828  32.4718 0001219  78.7662 221.8371 15.75187122  2980
STARLINK-38074          
1 69741U 26150C   26194.00002315 -.00069626  00000+0 -36509-3 0  9990
2 69741  97.2840  32.2416 0001239  88.9270 310.9269 15.80850020  2940
STARLINK-38041          
1 69742U 26150D   26194.00002315 -.00020057  00000+0 -10418-3 0  9997
2 69742  97.2839  32.2436 0001115  99.5636 304.2435 15.80822095  2940
STARLINK-38087          
1 69743U 26150E   26194.00002315 -.00000068  00000+0  38261-6 0  9996
2 69743  97.2840  32.2445 0001053  97.0104 311.4402 15.80814600  2944
STARLINK-38078          
1 69744U 26150F   26194.00002315  .00028484  00000+0  14910-3 0  9990
2 69744  97.2840  32.2470 0001449  97.8958 314.8318 15.80794576  2949
